NORAD_CAT_ID,OBJECT_NAME,OBJECT_TYPE,EPOCH,MEAN_MOTION,ECCENTRICITY,INCLINATION,RA_OF_ASC_NODE,ARG_OF_PERICENTER,MEAN_ANOMALY,BSTAR,MEAN_MOTION_DOT,MEAN_MOTION_DDOT,TLE_LINE0,TLE_LINE1,TLE_LINE2,SEMIMAJOR_AXIS,PERIOD,APOGEE,PERIGEE,DECAYED
54780.0,STARLINK-5449,PAYLOAD,2024-06-05 21:47:47,15.08840711,0.0001916,53.2157,30.0912,82.6044,277.5166,6.2544e-05,7.07e-06,0.0,0 STARLINK-5449,1 54780U 22175Y   24157.90818399  .00000707  00000-0  62544-4 0  9996,2 54780  53.2157  30.0912 0001916  82.6044 277.5166 15.08840711 83241,6917.878,95.438,541.069,538.418,0.0
54780.0,STARLINK-5449,PAYLOAD,2024-06-07 00:49:19,15.08850519,0.0001149,53.2161,25.0368,89.7942,270.3181,-2.3841e-05,-6.67e-06,0.0,0 STARLINK-5449,1 54780U 22175Y   24159.03425742 -.00000667  00000-0 -23841-4 0  9992,2 54780  53.2161  25.0368 0001149  89.7942 270.3181 15.08850519 81252,6917.848,95.437,540.508,538.918,0.0
54780.0,STARLINK-5449,PAYLOAD,2024-06-07 15:07:48,15.08839516,0.0001403,53.2125,22.357,102.4711,257.6439,7.2479e-05,8.66e-06,0.0,0 STARLINK-5449,1 54780U 22175Y   24159.63042080  .00000866  00000-0  72479-4 0  9998,2 54780  53.2125  22.3570 0001403 102.4711 257.6439 15.08839516 83505,6917.882,95.438,540.717,538.776,0.0
54780.0,STARLINK-5449,PAYLOAD,2024-06-07 21:29:21,15.08837027,0.0001236,53.2144,21.1687,86.3294,273.7839,5.3272e-05,5.6e-06,0.0,0 STARLINK-5449,1 54780U 22175Y   24159.89538366  .00000560  00000-0  53272-4 0  9994,2 54780  53.2144  21.1687 0001236  86.3294 273.7839 15.08837027 81384,6917.889,95.438,540.61,538.899,0.0
54780.0,STARLINK-5449,PAYLOAD,2024-06-08 00:40:07,15.08836003,0.0001547,53.2169,20.5767,87.0956,273.0213,7.0027e-05,8.27e-06,0.0,0 STARLINK-5449,1 54780U 22175Y   24160.02786504  .00000827  00000-0  70027-4 0  9993,2 54780  53.2169  20.5767 0001547  87.0956 273.0213 15.08836003 83565,6917.893,95.438,540.828,538.687,0.0
54780.0,STARLINK-5449,PAYLOAD,2024-06-08 21:20:08,15.08833122,0.0001283,53.2192,16.7066,81.6802,278.4336,7.1263e-05,8.46e-06,0.0,0 STARLINK-5449,1 54780U 22175Y   24160.88898794  .00000846  00000-0  71263-4 0  9996,2 54780  53.2192  16.7066 0001283  81.6802 278.4336 15.08833122 83695,6917.901,95.438,540.654,538.879,0.0
54780.0,STARLINK-5449,PAYLOAD,2024-06-09 13:14:00,15.08830737,0.0001323,53.2193,13.7336,81.8622,278.2521,4.0606e-05,3.58e-06,0.0,0 STARLINK-5449,1 54780U 22175Y   24161.55139466  .00000358  00000-0  40606-4 0  9990,2 54780  53.2193  13.7336 0001323  81.8622 278.2521 15.08830737 81635,6917.909,95.438,540.689,538.858,0.0
54780.0,STARLINK-5449,PAYLOAD,2024-06-09 21:10:56,15.08832914,6.82e-05,53.2212,12.2499,64.9416,295.1646,5.4486e-05,5.79e-06,0.0,0 STARLINK-5449,1 54780U 22175Y   24161.88259436  .00000579  00000-0  54486-4 0  9992,2 54780  53.2212  12.2499 0000682  64.9416 295.1646 15.08832914 83841,6917.902,95.438,540.239,539.295,0.0
54780.0,STARLINK-5449,PAYLOAD,2024-06-10 21:01:42,15.08840406,9.77e-05,53.2174,7.7888,84.4713,275.639,0.00015125,2.12e-05,0.0,0 STARLINK-5449,1 54780U 22175Y   24162.87619011  .00002120  00000-0  15125-3 0  9991,2 54780  53.2174   7.7888 0000977  84.4713 275.6390 15.08840406 81834,6917.879,95.438,540.42,539.068,0.0
54780.0,STARLINK-5449,PAYLOAD,2024-06-11 06:34:01,15.08846801,3.65e-05,53.2191,6.0052,8.7283,351.3716,0.00017014,2.422e-05,0.0,0 STARLINK-5449,1 54780U 22175Y   24163.27362540  .00002422  00000-0  17014-3 0  9992,2 54780  53.2191   6.0052 0000365   8.7283 351.3716 15.08846801 84056,6917.86,95.437,539.977,539.472,0.0
54780.0,STARLINK-5449,PAYLOAD,2024-06-12 06:24:47,15.08853459,0.0001131,53.2184,1.5448,77.8985,282.2134,0.0002018,2.926e-05,0.0,0 STARLINK-5449,1 54780U 22175Y   24164.26722091  .00002926  00000-0  20180-3 0  9990,2 54780  53.2184   1.5448 0001131  77.8985 282.2134 15.08853459 82045,6917.839,95.437,540.487,538.922,0.0
54780.0,STARLINK-5449,PAYLOAD,2024-06-12 20:43:17,15.08838305,0.0001278,53.2185,358.868,85.8637,274.2502,-2.4363e-05,-6.76e-06,0.0,0 STARLINK-5449,1 54780U 22175Y   24164.86339676 -.00000676  00000-0 -24363-4 0  9999,2 54780  53.2185 358.8680 0001278  85.8637 274.2502 15.08838305 82130,6917.886,95.438,540.635,538.866,0.0
54780.0,STARLINK-5449,PAYLOAD,2024-06-12 22:18:40,15.08840882,0.0001278,53.2185,358.5705,86.8261,273.2877,-1.7308e-06,-3.15e-06,0.0,0 STARLINK-5449,1 54780U 22175Y   24164.92963444 -.00000315  00000-0 -17308-5 0  9994,2 54780  53.2185 358.5705 0001278  86.8261 273.2877 15.08840882 84307,6917.878,95.437,540.627,538.859,0.0
54780.0,STARLINK-5449,PAYLOAD,2024-06-13 06:15:35,15.08848418,0.000128,53.2186,357.0852,83.1636,276.9502,4.3752e-05,4.09e-06,0.0,0 STARLINK-5449,1 54780U 22175Y   24165.26082795  .00000409  00000-0  43752-4 0  9996,2 54780  53.2186 357.0852 0001280  83.1636 276.9502 15.08848418 82197,6917.855,95.437,540.605,538.834,0.0
54780.0,STARLINK-5449,PAYLOAD,2024-06-13 22:09:27,15.08845275,0.0001121,53.2177,354.1075,117.5482,242.5624,1.9433e-05,2.2e-07,0.0,0 STARLINK-5449,1 54780U 22175Y   24165.92323001  .00000022  00000-0  19433-4 0  9997,2 54780  53.2177 354.1075 0001121 117.5482 242.5624 15.08845275 84450,6917.864,95.437,540.505,538.954,0.0
54780.0,STARLINK-5449,PAYLOAD,2024-06-14 12:27:55,15.08838575,0.0001429,53.2197,351.4332,103.7906,256.3245,0.00019148,2.761e-05,0.0,0 STARLINK-5449,1 54780U 22175Y   24166.51939028  .00002761  00000-0  19148-3 0  9999,2 54780  53.2197 351.4332 0001429 103.7906 256.3245 15.08838575 84544,6917.885,95.438,540.738,538.761,0.0
54780.0,STARLINK-5449,PAYLOAD,2024-06-14 22:00:14,15.08840187,0.0001458,53.2188,349.6499,97.1037,263.0121,7.1196e-05,8.45e-06,0.0,0 STARLINK-5449,1 54780U 22175Y   24166.91683305  .00000845  00000-0  71196-4 0  9990,2 54780  53.2188 349.6499 0001458  97.1037 263.0121 15.08840187 84607,6917.88,95.438,540.753,538.736,0.0
54780.0,STARLINK-5449,PAYLOAD,2024-06-15 21:51:01,15.08843525,0.0001211,53.2183,345.1893,94.5063,265.6067,5.4241e-05,5.76e-06,0.0,0 STARLINK-5449,1 54780U 22175Y   24167.91043215  .00000576  00000-0  54241-4 0  9994,2 54780  53.2183 345.1893 0001211  94.5063 265.6067 15.08843525 84750,6917.87,95.437,540.572,538.897,0.0
54780.0,STARLINK-5449,PAYLOAD,2024-06-16 12:09:29,15.08837092,0.0001322,53.2183,342.513,89.6156,270.4988,0.00010668,1.41e-05,0.0,0 STARLINK-5449,1 54780U 22175Y   24168.50659554  .00001410  00000-0  10668-3 0  9991,2 54780  53.2183 342.5130 0001322  89.6156 270.4988 15.08837092 84844,6917.889,95.438,540.669,538.84,0.0
54780.0,STARLINK-5449,PAYLOAD,2024-06-16 18:31:02,15.08835621,0.0001156,53.2183,341.3221,90.2993,269.8132,1.7437e-05,-1e-07,0.0,0 STARLINK-5449,1 54780U 22175Y   24168.77155853 -.00000010  00000-0  17437-4 0  9991,2 54780  53.2183 341.3221 0001156  90.2993 269.8132 15.08835621 84887,6917.894,95.438,540.558,538.959,0.0
54780.0,STARLINK-5449,PAYLOAD,2024-06-17 18:21:49,15.088358,0.0001641,53.2186,336.8622,82.7362,277.3817,4.5378e-05,4.34e-06,0.0,0 STARLINK-5449,1 54780U 22175Y   24169.76516082  .00000434  00000-0  45378-4 0  9990,2 54780  53.2186 336.8622 0001641  82.7362 277.3817 15.08835800 85030,6917.893,95.438,540.893,538.623,0.0
54780.0,STARLINK-5449,PAYLOAD,2024-06-18 11:51:04,15.08831197,0.0001569,53.2196,333.5924,93.2164,266.9008,0.00011166,1.489e-05,0.0,0 STARLINK-5449,1 54780U 22175Y   24170.49380308  .00001489  00000-0  11166-3 0  9990,2 54780  53.2196 333.5924 0001569  93.2164 266.9008 15.08831197 85149,6917.907,95.438,540.858,538.687,0.0
54780.0,STARLINK-5449,PAYLOAD,2024-06-18 19:48:00,15.08834861,0.0001279,53.2192,332.108,94.3646,265.7492,0.00013958,1.934e-05,0.0,0 STARLINK-5449,1 54780U 22175Y   24170.82500143  .00001934  00000-0  13958-3 0  9994,2 54780  53.2192 332.1080 0001279  94.3646 265.7492 15.08834861 83039,6917.896,95.438,540.646,538.876,0.0
54780.0,STARLINK-5449,PAYLOAD,2024-06-19 03:44:55,15.08845155,0.0001361,53.2192,330.6202,85.3513,274.7635,9.2172e-05,1.179e-05,0.0,0 STARLINK-5449,1 54780U 22175Y   24171.15619617  .00001179  00000-0  92172-4 0  9995,2 54780  53.2192 330.6202 0001361  85.3513 274.7635 15.08845155 83085,6917.865,95.437,540.671,538.788,0.0
54780.0,STARLINK-5449,PAYLOAD,2024-06-19 14:52:38,15.08831574,0.0001707,53.2216,328.5393,92.7407,267.3781,3.8074e-05,3.18e-06,0.0,0 STARLINK-5449,1 54780U 22175Y   24171.61988890  .00000318  00000-0  38074-4 0  9993,2 54780  53.2216 328.5393 0001707  92.7407 267.3781 15.08831574 85315,6917.906,95.438,540.952,538.59,0.0
54780.0,STARLINK-5449,PAYLOAD,2024-06-19 18:03:24,15.08832301,0.0001613,53.2196,327.9442,93.4892,266.6284,4.4536e-05,4.21e-06,0.0,0 STARLINK-5449,1 54780U 22175Y   24171.75236825  .00000421  00000-0  44536-4 0  9997,2 54780  53.2196 327.9442 0001613  93.4892 266.6284 15.08832301 83173,6917.904,95.438,540.885,538.653,0.0
54780.0,STARLINK-5449,PAYLOAD,2024-06-20 03:35:42,15.08843256,0.0001499,53.2192,326.1564,84.2755,275.8408,0.00011074,1.475e-05,0.0,0 STARLINK-5449,1 54780U 22175Y   24172.14979918  .00001475  00000-0  11074-3 0  9998,2 54780  53.2192 326.1564 0001499  84.2755 275.8408 15.08843256 83231,6917.87,95.437,540.772,538.698,0.0
54780.0,STARLINK-5449,PAYLOAD,2024-06-20 14:43:25,15.08836473,0.0001435,53.2192,324.0791,85.1223,274.9933,8.5179e-05,1.068e-05,0.0,0 STARLINK-5449,1 54780U 22175Y   24172.61348531  .00001068  00000-0  85179-4 0  9997,2 54780  53.2192 324.0791 0001435  85.1223 274.9933 15.08836473 85463,6917.891,95.438,540.749,538.763,0.0
54780.0,STARLINK-5449,PAYLOAD,2024-06-20 17:54:11,15.08841152,0.0001258,53.2183,323.4834,87.565,272.5486,4.9198e-05,4.95e-06,0.0,0 STARLINK-5449,1 54780U 22175Y   24172.74596276  .00000495  00000-0  49198-4 0  9996,2 54780  53.2183 323.4834 0001258  87.5650 272.5486 15.08841152 83327,6917.877,95.437,540.612,538.872,0.0
54780.0,STARLINK-5449,PAYLOAD,2024-06-21 14:34:12,15.08836151,0.000137,53.2181,319.617,89.5206,270.5943,9.336e-05,1.198e-05,0.0,0 STARLINK-5449,1 54780U 22175Y   24173.60708524  .00001198  00000-0  93360-4 0  9994,2 54780  53.2181 319.6170 0001370  89.5206 270.5943 15.08836151 85612,6917.892,95.438,540.705,538.809,0.0
